[{"OBJECT_NAME":"SAUDICOMSAT 1","OBJECT_ID":"2004-025D","EPOCH":"2026-03-09T22:47:58.064640","MEAN_MOTION":14.5538941,"ECCENTRICITY":0.00315786,"INCLINATION":98.5809,"RA_OF_ASC_NODE":76.3919,"ARG_OF_PERICENTER":329.4407,"MEAN_ANOMALY":30.4949,"EPHEMERIS_TYPE":0,"CLASSIFICATION_TYPE":"U","NORAD_CAT_ID":28369,"ELEMENT_SET_NO":999,"REV_AT_EPOCH":14969,"BSTAR":0.00015560401,"MEAN_MOTION_DOT":6.3e-6,"MEAN_MOTION_DDOT":0},{"OBJECT_NAME":"COSMOS 2251 DEB","OBJECT_ID":"1993-036BPW","EPOCH":"2026-03-05T20:50:22.052256","MEAN_MOTION":14.49800666,"ECCENTRICITY":0.00657019,"INCLINATION":73.9898,"RA_OF_ASC_NODE":245.3982,"ARG_OF_PERICENTER":2.403,"MEAN_ANOMALY":357.7432,"EPHEMERIS_TYPE":0,"CLASSIFICATION_TYPE":"U","NORAD_CAT_ID":37971,"ELEMENT_SET_NO":999,"REV_AT_EPOCH":61882,"BSTAR":0.0014131965,"MEAN_MOTION_DOT":5.578e-5,"MEAN_MOTION_DDOT":0}]
